IRIDIUM 57 [-]          
1 25273U 98019B   23285.57204560  .00000992  00000+0  34208-3 0  9994
2 25273  86.3991  42.1945 0002110  91.8698 268.2740 14.34936395336768
IRIDIUM 63 [-]          
1 25286U 98021B   23285.61652668  .00000832  00000+0  28303-3 0  9994
2 25286  86.4013 339.1503 0002394  92.9168 267.2302 14.35443107335795
IRIDIUM 69 [-]          
1 25319U 98026A   23285.57483642  .00001100  00000+0  34585-3 0  9993
2 25319  86.4037 354.2644 0001044 171.2865 188.8352 14.39613651334742
IRIDIUM 71 [-]          
1 25320U 98026B   23285.56121445  .00001023  00000+0  31922-3 0  9990
2 25320  86.4024 349.1038 0001405  24.9152 335.2115 14.39948250335252
IRIDIUM 73 [-]          
1 25344U 98032C   23285.57356216  .00001112  00000+0  28186-3 0  9997
2 25344  86.4383 306.9349 0001634  94.8016 265.3375 14.50064478341590
IRIDIUM 82 [-]          
1 25467U 98051A   23285.57464504  .00015373  00000+0  89897-3 0  9994
2 25467  86.3966  42.6499 0147832  49.5752 311.8268 15.02880286331067
IRIDIUM 2 [-]           
1 25527U 98066A   23285.53240123  .00049992  00000+0  11769-2 0  9998
2 25527  85.5147 100.0968 0004386 190.2169 169.8996 15.41742925369204
